ONEWEB-0113             
1 48050U 21025J   24080.66937582 -.00000228  00000+0 -65816-3 0  9999
2 48050  87.8930 123.1616 0001963  87.8193 272.3161 13.13467674146138
ONEWEB-0112             
1 48051U 21025K   24080.65668273  .00000135  00000+0  33460-3 0  9992
2 48051  87.8924 123.1687 0002106  98.5133 261.6235 13.13468379146140
ONEWEB-0156             
1 48052U 21025L   24080.66620210 -.00000021  00000+0 -91454-4 0  9997
2 48052  87.8928 123.1604 0002019  97.4905 262.6454 13.13468440146123
ONEWEB-0161             
1 48053U 21025M   24080.63922744  .00000308  00000+0  80861-3 0  9997
2 48053  87.8929 123.1708 0001921 104.8935 255.2407 13.13469705146050
ONEWEB-0158             
1 48054U 21025N   24080.60113355 -.00000319  00000+0 -90772-3 0  9991
2 48054  87.8928 123.1712 0002113  95.1701 264.9669 13.13469598146172
ONEWEB-0157             
1 48055U 21025P   24080.62493851  .00000029  00000+0  44357-4 0  9991
2 48055  87.8924 123.1824 0002154 103.9467 256.1901 13.13470206146119
ONEWEB-0162             
1 48056U 21025Q   24080.66461493 -.00000079  00000+0 -25134-3 0  9991
2 48056  87.8924 123.1717 0002059  97.1715 262.9649 13.13469108146095
ONEWEB-0155             
1 48057U 21025R   24081.14231116 -.00000278  00000+0 -79656-3 0  9992
2 48057  87.8923 123.0855 0001971  98.0739 262.0613 13.13469654146307
ONEWEB-0149             
1 48058U 21025S   24080.62968722  .00000154  00000+0  38723-3 0  9996
2 48058  87.8925 123.1844 0002279  98.0205 262.1183 13.13473634146035
ONEWEB-0148             
1 48059U 21025T   24080.67096301 -.00000228  00000+0 -65843-3 0  9994
2 48059  87.8930 123.1830 0002562 104.6913 255.4500 13.13468196146161
ONEWEB-0160             
1 48060U 21025U   24080.83918629 -.00000221  00000+0 -63880-3 0  9992
2 48060  87.8926 123.1452 0002238  71.4741 288.6631 13.13470516146137
ONEWEB-0163             
1 48061U 21025V   24080.67254615 -.00000328  00000+0 -93266-3 0  9992
2 48061  87.8925 123.1741 0001949 105.2759 254.8586 13.13469273146234
ONEWEB-0159             
1 48062U 21025W   24080.66143822  .00000026  00000+0  37420-4 0  9993
2 48062  87.8925 123.1603 0002149 102.4824 257.6545 13.13469775146151
ONEWEB-0164             
1 48063U 21025X   24080.64398687  .00000317  00000+0  83192-3 0  9992
2 48063  87.8925 123.1737 0001853  95.4722 264.6618 13.13468895146138
ONEWEB-0167             
1 48064U 21025Y   24080.67332487 -.00000267  00000+0 -76650-3 0  9999
2 48064  87.8926 123.1785 0001990 101.9561 258.1791 13.13467925146121
ONEWEB-0166             
1 48065U 21025Z   24080.84712611 -.00000129  00000+0 -38688-3 0  9996
2 48065  87.8921 123.1304 0002225 100.0869 260.0511 13.13469921146228
ONEWEB-0151             
1 48066U 21025AA  24081.15341689 -.00000143  00000+0 -42693-3 0  9992
2 48066  87.8922 123.0807 0001830  97.3811 262.7526 13.13471088146214
ONEWEB-0170             
1 48067U 21025AB  24080.62811381  .00000100  00000+0  23942-3 0  9992
2 48067  87.8925 123.1869 0001559  80.5276 279.6029 13.13469994146098
ONEWEB-0168             
1 48068U 21025AC  24080.84235528 -.00000100  00000+0 -30964-3 0  9994
2 48068  87.8928 123.1112 0002054 100.3827 259.7533 13.13472031146137
ONEWEB-0173             
1 48069U 21025AD  24080.60589242 -.00000307  00000+0 -87470-3 0  9997
2 48069  87.8927 123.1687 0001786 113.1657 246.9660 13.13469839146342
ONEWEB-0171             
1 48070U 21025AE  24080.64239893  .00000351  00000+0  92548-3 0  9996
2 48070  87.8928 123.1969 0001830  98.4521 261.6815 13.13468947146168
ONEWEB-0172             
1 48071U 21025AF  24080.62176028 -.00000063  00000+0 -20756-3 0  9999
2 48071  87.8929 123.1676 0001812 102.3128 257.8204 13.13470434147055
ONEWEB-0174             
1 48072U 21025AG  24080.68047958 -.00000324  00000+0 -92176-3 0  9990
2 48072  87.8927 123.1699 0002153  98.6196 261.5177 13.13470690146380
ONEWEB-0175             
1 48073U 21025AH  24080.63287474  .00000260  00000+0  67772-3 0  9996
2 48073  87.8921 123.1734 0001591  91.6855 268.4456 13.13469856146035
ONEWEB-0177             
1 48074U 21025AJ  24080.64556965  .00000395  00000+0  10467-2 0  9999
2 48074  87.8924 123.1772 0002081 111.2490 248.8862 13.13469370146225
ONEWEB-0178             
1 48075U 21025AK  24080.66316636 -.00000053  00000+0 -18035-3 0  9994
2 48075  87.8932 123.1855 0001955 103.9227 256.2120 13.13469063146276
ONEWEB-0108             
1 48076U 21025AL  24080.62335210  .00000015  00000+0  70449-5 0  9995
2 48076  87.8922 123.1797 0002203  93.8169 266.3212 13.13470175146191
ONEWEB-0169             
1 48077U 21025AM  24080.65509465  .00000178  00000+0  45250-3 0  9994
2 48077  87.8927 123.1811 0002210  91.7319 268.4063 13.13468878144851
ONEWEB-0176             
1 48210U 21031A   24080.53222726 -.00000091  00000+0 -28112-3 0  9993
2 48210  87.8891  92.6206 0001893  90.7203 269.4143 13.14502881140765
ONEWEB-0184             
1 48211U 21031B   24080.96197123 -.00000025  00000+0 -10155-3 0  9998
2 48211  87.8889  92.5217 0000860  79.1568 280.9658 13.14501406140796
ONEWEB-0179             
1 48212U 21031C   24080.93184674  .00000232  00000+0  59215-3 0  9991
2 48212  87.8891  92.5272 0001967  97.0851 263.0503 13.14502928140830
ONEWEB-0180             
1 48213U 21031D   24080.58455802 -.00000085  00000+0 -26428-3 0  9995
2 48213  87.8890  92.5971 0001894  97.9380 262.1965 13.14502782140673
ONEWEB-0218             
1 48214U 21031E   24080.53063575 -.00000091  00000+0 -28088-3 0  9994
2 48214  87.8887  92.6100 0000837 109.9080 250.2140 13.14501311140829
ONEWEB-0209             
1 48215U 21031F   24081.05235609 -.00004908  00000+0 -13275-1 0  9993
2 48215  87.8892  92.5369 0001812 102.6610 257.4722 13.14525930140890
ONEWEB-0198             
1 48216U 21031G   24080.96038679  .00000095  00000+0  22189-3 0  9998
2 48216  87.8890  92.5610 0001567 102.9792 257.1513 13.14502086140992
ONEWEB-0189             
1 48217U 21031H   24080.51636705 -.00000135  00000+0 -39831-3 0  9993
2 48217  87.8890  92.6261 0001562 105.2275 254.9027 13.14501667140677
ONEWEB-0196             
1 48218U 21031J   24080.95087546  .00000269  00000+0  69181-3 0  9992
2 48218  87.8892  92.5409 0001787  93.7634 266.3700 13.14502341140734
ONEWEB-0183             
1 48219U 21031K   24080.92550328  .00000050  00000+0  10166-3 0  9990
2 48219  87.8888  92.5630 0001936  93.7081 266.4270 13.14503197140821
ONEWEB-0185             
1 48220U 21031L   24080.95166926  .00000188  00000+0  47137-3 0  9992
2 48220  87.8890  92.5312 0002030 100.3146 259.8213 13.14501174140754
ONEWEB-0187             
1 48221U 21031M   24080.92153572  .00000119  00000+0  28682-3 0  9991
2 48221  87.8891  92.5684 0001989  95.5540 264.5817 13.14502604140766
ONEWEB-0192             
1 48222U 21031N   24080.59724456 -.00000193  00000+0 -55385-3 0  9994
2 48222  87.8891  92.6304 0001760  95.2383 264.8948 13.14501940140632
ONEWEB-0219             
1 48223U 21031P   24080.95719630  .00001184  00000+0  31574-2 0  9995
2 48223  87.8892  92.5330 0001999  99.8456 260.2900 13.14511891140888
ONEWEB-0202             
1 48224U 21031Q   24080.93818850  .00000277  00000+0  71328-3 0  9992
2 48224  87.8889  92.5572 0001191 113.4663 246.6592 13.14503030140869
ONEWEB-0204             
1 48225U 21031R   24080.59168820 -.00000177  00000+0 -51304-3 0  9993
2 48225  87.8889  92.6390 0002366  89.6636 270.4765 13.14501305140712
ONEWEB-0205             
1 48226U 21031S   24080.94770505  .00000254  00000+0  65005-3 0  9999
2 48226  87.8891  92.5383 0001957 101.7758 258.3591 13.14502096140779
ONEWEB-0206             
1 48227U 21031T   24080.54015508  .00000212  00000+0  53717-3 0  9992
2 48227  87.8885  92.6112 0002080  96.5042 263.6325 13.14501140140671
ONEWEB-0182             
1 48228U 21031U   24080.53540178 -.00000068  00000+0 -21805-3 0  9992
2 48228  87.8892  92.6361 0002131  92.9307 267.2067 13.14502733140882
ONEWEB-0186             
1 48229U 21031V   24081.07932236  .00000060  00000+0  12739-3 0  9999
2 48229  87.8889  92.4915 0001806  92.9175 267.2161 13.14501727140914
ONEWEB-0181             
1 48230U 21031W   24080.52429521 -.00000201  00000+0 -57724-3 0  9990
2 48230  87.8893  92.6721 0001747  95.5423 264.5906 13.14502859140696
ONEWEB-0188             
1 48231U 21031X   24080.94294734  .00000322  00000+0  83503-3 0  9999
2 48231  87.8891  92.5847 0001946  94.1818 265.9534 13.14502229140645
ONEWEB-0220             
1 48232U 21031Y   24080.52588129 -.00000195  00000+0 -56086-3 0  9994
2 48232  87.8885  92.6381 0002030 103.8185 256.3171 13.14502740140855
ONEWEB-0165             
1 48233U 21031Z   24081.08725494  .00000149  00000+0  36685-3 0  9995
2 48233  87.8890  92.5364 0001646  95.0835 265.0483 13.14503044140882
ONEWEB-0199             
1 48234U 21031AA  24081.07139406 -.00000078  00000+0 -24566-3 0  9995
2 48234  87.8889  92.5105 0001913  97.1298 263.0049 13.14503145140784
ONEWEB-0203             
1 48235U 21031AB  24081.06187844 -.00000175  00000+0 -50652-3 0  9997
2 48235  87.8890  92.5134 0001547  79.3028 280.8276 13.14502746140791
ONEWEB-0197             
1 48236U 21031AC  24080.96118058  .00000064  00000+0  13889-3 0  9993
2 48236  87.8890  92.5417 0002339  94.1115 266.0282 13.14501521140690
ONEWEB-0194             
1 48237U 21031AD  24080.93977276  .00000304  00000+0  78528-3 0  9994
2 48237  87.8892  92.5377 0001812  81.2424 278.8911 13.14501956140864
ONEWEB-0193             
1 48238U 21031AE  24080.95563169  .00000225  00000+0  57232-3 0  9990
2 48238  87.8892  92.5427 0001730  92.2109 267.9219 13.14502225140817
ONEWEB-0191             
1 48239U 21031AF  24080.96672854 -.00000052  00000+0 -17581-3 0  9997
2 48239  87.8889  92.5273 0001818  90.1240 270.0098 13.14501241140674
ONEWEB-0195             
1 48240U 21031AG  24080.94373933  .00000312  00000+0  80824-3 0  9990
2 48240  87.8889  92.5312 0001679 108.0219 252.1093 13.14502106140655
